Suburb,Keyword,CompanyName,Description,Address,Phone,Email,Website
4227,communications,Data Comms Security,,"48/ 2 Cassowary Dr, Burleigh Waters QLD 4220",0755203802,,
4227,communications,Data & Voice Qld,,"Unit 2/ 92 Township Dr, Burleigh Heads QLD 4220",0756314302,,
4227,communications,AB Comms,,Burleigh Heads QLD 4220,0755761788,gary@abc-network.net,http://www.abcomms.net.au
4227,communications,Multicom Communications Pty Ltd,,"Unit 9 14-16 Ramly Dr, West Burleigh QLD 4219",0755200099,,
4227,communications,OntheNet,For everything Internet trust a local,"165 Varsity Parade, Varsity Lakes QLD 4227",0755539222,support@onthenet.com.au,http://www.onthenet.com.au
4227,communications,OntheNet,,"Level 1, OnTheNet Building, 165 Varsity Pde,, Varsity Lakes QLD 4227",1300650559,sales@onthenet.com.au,http://www.onthenet.com.au
4227,communications,NET-TEK Services Australia,,Varsity Lakes QLD 4227,0755620776,,http://www.net-tekservices.com
4227,communications,Global Card Services,,,0755845355,,
4227,communications,Telstra Store Robina,Simplify Your Business,"Shop 2015 Robina Town Centre, Robina Parkway, Robina QLD 4230",0755788155,enquiries@telstrarobina.com.au,http://www.telstra.com.au/store-locator
4227,communications,Telstra Store Burleigh Heads,Simplify Your Business,"Shop 95 Stockland Shopping Centre, 149 West Burleigh Rd, Burleigh Heads QLD 4220",0755353399,connect@telstrastoreburleighheads.com.au,http://www.telstra.com.au/store-locator
4227,communications,Virgin Mobile,Innovative Wireless Broadband.,"Robina Town Centre, Level 2 - Kiosk 2-5 Robina Town Centre Dr, Robina QLD 4230",0755622277,,http://www.virginmobile.com.au
4227,communications,Just Been Paid Australia,,Robina QLD 4226,0466362575,dubli@hotmail.com.au,http://justbeenpaidaus.webs.com
4227,communications,tHealth,,"20 99 West Burleigh Rd, Burleigh Heads QLD 4220",1300799563,info@thealth.com.au,
4227,communications,Ballard International pty ltd,,Robina QLD 4226,0405402307,,
4227,communications,S. T. Cabling Pty Ltd,,Burleigh Waters QLD 4220,0439620682,,
4227,communications,Strongcastle Pty Ltd,,Robina QLD 4226,0755789981,,
4227,communications,CommsLogic,,"Suite 10/ 238 Robina Town Centre Dr, Robina QLD 4226",1800256442,,
4227,communications,Web Design Magic,,"Suite 5/ 5 Taree St, Burleigh QLD 4220",1300308210,,
4227,communications,Boat House Cabling,,"93 Tabilban St, Burleigh Heads QLD 4220",0755353740,,
4227,communications,Harrisontech Pty Ltd,,Robina Town Centre QLD 4230,0756301670,,
4227,communications,Domain World.com.au,,,1300665991,,
4227,communications,Fortana Networks Australia Pty Ltd,,"Ste 36/ 58 Riverwalk Ave, Robina QLD 4226",0755933500,,
4227,communications,Airweb Connect,,Robina QLD 4226,0755622851,,
4227,communications,Innovative Product & Distribution Pty Ltd,,"35/ 27 Eugenia Cct, Robina QLD 4226",0755620745,,
4227,communications,Modern Communication Systems,,"1/ 67 Casua Dr, Varsity Lakes QLD 4227",0755222222,,
4227,communications,Coastal Voice & Data,"Telephone Systems, PABX, VOIP, Mobiles, Data, Business Communications.",ROBINA QLD 4226,1800115795,info@cvd.net.au,http://www.cvd.net.au
4227,communications,Commex Communication Experts,,Mudgeeraba QLD 4213,0755691000,,
4227,communications,Gray's Communications,,Mudgeeraba QLD 4213,0409006814,,
4227,communications,QLD Telecommunication Solutions,,Bonogin QLD 4213,0419653008,,
4227,communications,Cryptonet Pty Ltd,,Broadbeach Waters QLD 4218,0414723420,,
4227,communications,Telecoast Communications Pty Ltd,Sales - Service - Rentals,"Unit 4/ 22 Mountain View Ave, Miami QLD 4220",0755762377,,
4227,communications,Telstra Store Elanora,Simplify Your Business,"Shop 18 The Pines Shopping Centre, Cnr Guineas Creek Rd and Kp McGrath Dr, Elanora QLD 4221",0755595800,sales@tlselanora.com.au,http://www.telstra.com.au/store-locator
4227,communications,Telstra Store Mermaid Waters,Simplify Your Business,"Shop C 16, Q-Super Shopping Centre, Cnr Bermuda and Markeri Sts, Mermaid Waters QLD 4218",1800729543,,http://www.telstra.com.au/store-locator
4227,communications,Telstra Store Pacific Fair (Refresh FRE),Simplify Your Business,"Shop 13-14 Pacific Fair Shopping Centre, Cnr Sunshine and Hooker Boulevard, Broadbeach QLD 4218",1800725714,,http://www.telstra.com.au/store-locator
4227,communications,Virgin Mobile,Innovative Wireless Broadband.,"Pacific Fair Shopping Centre, Level 2 - Kiosk 29 Hooker Blv, Broadbeach QLD 4218",0755720608,,http://www.virginmobile.com.au
4227,communications,Find Me on the Net,,Broadbeach QLD 4218,0450423846,john@findmeonthenet.com.au,http://findmeonthenet.com.au
4227,communications,BlueCloudWiFi,,"Suite 256/ 15 Albert Ave, Broadbeach QLD 4218",1300737985,annaiana@yahoo.com,http://bluecloudwifi.com.au
4227,communications,Mr Telco,,,0731023310,help@mrtelco.com,http://mrtelco.com
4227,communications,Choice Adventures,,Broadbeach QLD 4218,0419641322,,http://www.choiceadventures.com.au
4227,communications,iroom,,"22 Merrimac Blv, Broadbeach Waters QLD 4218",0434300059,,
4227,communications,I4U.com.au,,,1800018383,,
4227,communications,Nuclear Days Online,,Palm Beach QLD 4221,0755207596,,
4227,communications,Hypernet Solutions,,Broadbeach QLD 4218,0416304066,,
4227,communications,Invisilink Pty Ltd,,"114 Nobby Parade, Miami QLD 4220",1300496900,,
4227,communications,Calmon Computing,,"Ste 5/ 17 Connor St, Burleigh Heads QLD 4220",0755082850,,
4227,communications,iwebpromote,,,0404070763,,
4227,communications,Laponac Pty Ltd,,"Ste 9/ 37 Connor St, Burleigh Heads QLD 4220",0755206900,,
4227,communications,Non Stop Communication,,"Broadbeach Mall Suite 76/15 Victoria Sq, Broadbeach QLD 4218",0755315411,,
4227,communications,Blue Skies Imagine Essential Services,,Elanora QLD 4221,0755346878,,
4227,communications,Aus Telco,,"88 Rumrunner St, Mermaid Waters QLD 4218",0756066800,,
4227,communications,General Communications,,"7 Tuesday Dr, Tallebudgera Valley QLD 4228",0755339876,admin@generalcommunications.com.au,http://www.generalcommunications.com.au
4227,communications,Galactic Communications,,Burleigh Waters QLD 4220,0411631007,galacticcom@optusnet.au,
4227,communications,Fermax Queensland/EGi#,,"Unit 11/ 8 Fortitude Crst, Burleigh Heads QLD 4220",0755202266,,
4227,communications,Multimedia Engineering Pty Ltd,,Burleigh Waters QLD 4220,0755252071,,
4227,communications,All Coast Security Contracting Pty Ltd,,"20 Straite Dr, Robina QLD 4226",0755758538,,
4227,communications,Telstra Business Centre Gold Coast,Helping Your Business Thrive,"Suite 5 /42 Bundall Rd, Bundall QLD 4217",1300781783,sales@tbcgoldcoast.com.au,http://www.telstra.com.au/business-enterprise/contact-us/visit-a-store/?tbc=bundall
4227,communications,Hooked On TV Antennas,,Gold Coast MC QLD 4217,0448884666,hotantennas@hotmail.com,http://www.hookedontvantennas.com
4227,communications,CA Bearcom,,"103-105 Spencer Road, Nerang QLD 4211",0755963451,,http://www.bearcom.net.au
4227,communications,Resch Electronic Repairs,,"1/ 9 Commercial Dr, Ashmore QLD 4214",0755914099,,
4227,communications,Radio Active Communications,,Ashmore QLD 4214,0419032468,,
4227,communications,Phil Scott Communications,,"5 Hillier St, Currumbin QLD 4223",0400442326,admin@philscottcommunications.com.au,http://www.philscottcommunications.com.au
4227,communications,Datavoice Queensland,,"50 Currumbin Creek Rd, Currumbin QLD 4223",0755985438,,
4227,communications,Communications Company The,,"Shop 2/ 71 Railway St, Mudgeeraba QLD 4213",0755229000,,
4227,communications,Gold Coast Telecommunications,,Tallai QLD 4213,0419221119,,
4227,communications,Day/Night Emergency Electrical Service,Keeping The Gold Coast In The Light,VARSITY LAKES QLD 4227,0755542200,,http://www.daynight.net.au
4227,communications,FNE Communications,,"8 Castello Cct, Varsity Lakes QLD 4227",0755359108,,
4227,communications,Bsmart Communications,,"183 Varsity Parade, Varsity Lakes QLD 4227",0756076200,,
4227,communications,Instant Security Alarms,,"Unit 6 28 Greg Chappell Dr, Burleigh Heads QLD 4220",0755221011,,http://www.instantsecurity.com.au
4227,communications,Emertech Communications,,Mudgeeraba QLD 4213,0756678129,grant@emertech.com.au,http://www.emertech.com.au
4227,communications,Coastal Voice & Data,,"93 W Burleigh Rd, Burleigh Heads QLD 4220",0266801701,info@cvd.net.au,http://www.cvd.net.au
4227,communications,Datatrek Communications,,Burleigh Heads QLD 4220,0417494001,datatrekcommunications@hotmail.com,http://www.datatrek.com.au
4227,communications,Xtreme Communications,,"Lvl 2/ Robina Town Ctr, Robina QLD 4226",0755808807,robina@xtremeonline.com.au,http://www.xtremeonline.com.au
4227,communications,Robs Electrical & Communications Pty Ltd,,Burleigh Heads QLD 4220,0410658790,,
4227,communications,Small Biz Voip,,Robina QLD 4226,1300223767,,http://www.smallbizvoip.com.au
4227,communications,Strange Voltage Communications,,Burleigh Heads QLD 4220,0438188532,,
4227,communications,Network Communications,,"Stockland Shopping Centre West Burleigh Rd, Burleigh Heads QLD 4220",0755206858,,
4227,communications,Network Communications,,"Shop 6 Treetops Plaza Shopping Centre, Burleigh Centre QLD 4220",0755220828,,
4227,communications,Xtreme Communications,,"Robina Town Centre Lvl 3/ Robina Town Centre Dr, Robina QLD 4226",0755931771,,
4227,communications,Telstra Store Surfers Paradise,Simplify Your Business,"Shop 127-128 Cavill Ave, Surfers Paradise QLD 4217",0756560700,,http://www.telstra.com.au/store-locator
4227,communications,SeafoodBuffetGoldCoast.com,,Ashmore QLD 4214,0405614155,info@seafoodbuffetgoldcoast.com,http://www.seafoodbuffetgoldcoast.com
4227,communications,Online Products Connection,,Ashmore QLD 4214,0404517807,paulewade@hotmail.com,http://twade.onlineproductsconnection.com
4227,communications,Think Mobile Pty Limited,,"Locked Bag 100, Southport QLD 4215",1300284465,mail@thinkmobile.com.au,https://www.thinkmobile.com.au
4227,communications,White Escapes,,Surfers Paradise QLD 4217,0412596631,caitlin@white-escapes.com,
4227,communications,Goldlink Internet,,"39 Dalpura St, Chevron Island,, Surfers Paradise QLD 4217",0755704077,,
4227,communications,Sound Media Solutions,,"9 Pacific Blv, Broadbeach Waters QLD 4218",0416315493,,
4227,communications,Connect.Com.Au,,"Level 4 50 Appel St, Surfers Paradise QLD 4217",0755926219,,
4227,communications,Service Corp IT Pty Ltd,,"Lvl 15 Corporate Centre One 2 Corporate Ct, Bundall QLD 4217",0755919500,,
4227,communications,Ocean Feather Pty Ltd,,"Suite 24 Level 9 1 Corporate Ct, Bundall QLD 4217",0432742560,,
4227,communications,bSage.Net,,"Suite 1/ 18 Charlton St, Southport QLD 4215",1300138805,,
4227,communications,Maven Global Communications,,Carrara QLD 4211,0416027445,,
4227,communications,Data Fx Online,,Surfers Paradise QLD 4217,0755923122,,
4227,communications,Eurocom Australia Pty Ltd,,"142 Bundall Rd, Bundall QLD 4217",0755792333,,
4227,communications,NEC Business Centre,,Bundall QLD 4217,0755381155,admin@xeroxbus.com.au,http://www.xeroxbus.com.au
4227,communications,Eurocom Australia Pty Ltd,,"3/ 83 Ashmore Rd, Bundall QLD 4217",0755708111,info@euro.com.au,http://www.euro.com.au
4227,communications,Keen Communications,,Worongary QLD 4213,0755307758,jeff@keencommunications.com.au,http://www.keencommunications.com.au/index.html
4227,communications,Com2 Communications - Gold Coast,,"9 1 Bundall Rd, Bundall QLD 4217",0409180536,info@com2.com.au,
4227,communications,Gold Coast Telecommunications,,Worongary QLD 4213,0755253377,,
4227,communications,Quick Phones,,"1/ 10 Strathaird Rd, Bundall QLD 4217",0755532555,,
4227,communications,National Communications (Aust) Pty Ltd,,"111 39 Lawrence Dr, Nerang QLD 4211",0755965128,,
4227,communications,Export Telecommunications,,"109 Amalfi Dr, Isle Of Capri QLD 4217",0403054597,,
4227,communications,Brothers Telco Pty Ltd,,Ashmore QLD 4214,0755100900,,
4227,communications,MoBis Australia Pty Ltd,,"Suite 6 64 Thomas Dr, Chevron Island QLD 4217",1300662431,,
4227,communications,Future Connections Pty Ltd,,Chevron Island QLD 4217,0756677077,,
4227,communications,Phone Recyclers Pty Ltd,,"Sh 6 44166 Lawrence Dr, Nerang QLD 4211",0755004756,,
4227,communications,Antenna Max,,Elanora QLD 4221,0409734920,dtv@iinet.net.au,
4227,communications,Gordon E & G Security,,"13 Hood Ct, Mermaid Waters QLD 4218",0755751549,eggordon@bigpond.net.au,
4227,communications,Tellum Communications,,"Po Box 4522 Elanora 4221 Qld, Elanora QLD 4221",0448835586,,
4227,communications,Auslink Security & Communications,Keep The Gold Coast Safe For Over 24 Years,Tallai QLD 4213,0755252255,,
4227,communications,South Coast TV Antenna Systems,Locally Recommended TV Antennas - Servicing & Installation,"19 Capano Ct, Elanora QLD 4221",1300464678,,
4227,communications,iWire Antennas,"Local & FAST  TV Antennas, Boosters, Aerials, Black spot, Satellite",CURRUMBIN QLD 4223,0402022111,,http://www.iwireantennas.com.au
4227,communications,Chris Moellenbeck Electrical,Electrical & Maintenance,Mermaid Waters QLD 4218,0418385791,,
4227,communications,Greg Talbot Communications Pty Ltd,For All Your Communication Need,Palm Beach QLD 4221,0407162702,,
4227,communications,Laser Electrical,"39 Years Of Experience In Industrial, Commercial & Domestic Sector",Currumbin QLD 4223,0755346699,,http://www.laserelectricalcurrumbin.com.au
4227,communications,Key Communications,,Tallai QLD 4213,0414612614,,
4227,communications,Network Communications,,"1156 Gold Coast Hwy, Palm Beach QLD 4221",0755984188,,
4227,communications,R & B Creative Communication,,"1 West St, Burleigh Heads QLD 4220",0755202199,,
4227,communications,Integra Communications Gold Coast,,"9 Quambone St, Worongary QLD 4213",0755251100,,
4227,communications,Short Circuit Communications,,"Tallebudgera Rd, Tallebudgera QLD 4228",0411748625,,
4227,communications,First Choice Communications,,"21 Martinique Way, Clear Island Waters QLD 4226",0755723790,,
4227,communications,Coastcall Communications,,"112 Oceanic Dr, Mermaid Waters QLD 4218",0414915754,,
4227,communications,JT's Electrical & Communications,,Nobby Beach QLD 4218,0755751006,,
4227,communications,Network Communications,,"Shop 1A The Pines Shopng Ctr, Elanora QLD 4221",0755984144,,
4227,communications,Automatic Security Systems Pty Ltd,Keeping you safe since 2003,"Unit 1 / 13 Indy Crt, Nerang QLD 4211",1300439783,admin@autoss.com.au,http://www.automaticsecuritysystems.com.au
4227,communications,Antennas And Aerials,,Highland Park QLD 4211,0755749126,antennas.aerials@optusnet.com.au,http://www.goldcoastantennaservice.com.au
4227,communications,Automatic Security Systems,,"Unit 1 / 13 Indy Ct, Nerang QLD 4211",0755272112,,
4227,communications,A Kendal Krebs Antennas,,Currumbin Waters QLD 4223,0437968350,,
4227,communications,Tactical Protection Services,,Carrara QLD 4211,0755799900,,
4227,communications,Harris Neil & David,,"28 Cabarita Ave, Tugun QLD 4224",0755341086,,
4227,communications,Logan City Electrical,Dedicated Electricians +35 Years To All Brisbane Suburbs & Logan,ASHMORE QLD 4214,0732092422,,http://www.lce.com.au
4227,communications,Add A Phone Point,No Job Too Small - All Areas Of The Gold Coast,Nerang QLD 4211,0419661495,,
4227,communications,M1 Trades Services,"Electrical, Communications And Air Conditioning","9 Monash St, Tugun QLD 4224",0423340618,,
4227,communications,Zed Creative,,"4 30 Lawrence Dr, Nerang QLD 4211",0756414243,nick@zed-creative.com.au,http://zed-creative.com.au
4227,communications,F&J Professional Computer Services,,"Unit 26 19 Warehouse Rd, Southport QLD 4215",0755712344,,http://www.fjpcs.com.au
4227,communications,Logic Communications Pty Ltd,,"Unit 3/ 18 Strathaird Rd, Bundall QLD 4217",1300139095,,
4227,communications,Mikcomm Communications,,"16 Skiff St, Southport QLD 4215",0893371125,,
4227,communications,Network Communications,,"115 Ferry Rd, Southport QLD 4215",0755913300,,
4227,communications,Motek Communications,,,0755022811,,
4227,communications,Logic Communications Pty Ltd,,"Unit 12/ 100 Bundall Rd, Bundall QLD 4217",0755848899,,
4227,communications,Leading Edge Telecoms,,"50 Spencer Rd, Nerang QLD 4211",1300462255,,
4227,communications,Com2 Communications,,"1 9 Corporate Cct, Bundall QLD 4217",0755885132,,
4227,communications,Com2 Communications,,"Lvl 9/ 1 Corporate Ct, Bundall QLD 4217",1800266628,,
4227,communications,Network Communications,,"Shop 9B Nerang Mall Gilston Rd, Nerang QLD 4211",0755783377,,
4227,communications,Network Communications,,"Shop 33A Centro Southport, Southport Park QLD 4215",0755911777,,
4227,communications,Teleselect Communications,,"Ashmore Plaza Kiosk 5 Cotlew St, Ashmore QLD 4214",0755649596,,
4227,managed IT,Grace Information & Records Management,Secure And Complete Management Of Valuable Business Information.,"12 Junction Rd, Burleigh Heads QLD 4220",0755937574,,http://www.graceinfo.com.au
4227,managed IT,M & M Group Accounting,High Quality & Affordable Accounting & Advisory Services.,"Suite 808/ 340 Scottsdale Dr, Robina QLD 4226",0755511334,info@mmgroupaccounting.com.au,http://www.mmgroupaccounting.com.au
4227,managed IT,Grahame Raftery & Co,Accounting & Business Solutions Your Success Is Our Business.,"HQ Suite 21 Level 2 58 Riverwalk Ave, Robina QLD 4226",0755930822,mail@grahamerafteryandco.com.au,http://www.grahamerafteryandco.com.au
4227,managed IT,Telstra Websites & eCommerce,We Can Help Your Business Thrive Online,ROBINA QLD 4226,1300800966,support@onlineessentials.com.au,https://www.telstra.com.au/small-business/websites-and-ecommerce
4227,managed IT,Business Insurance Planning Pty Ltd,For All General Insurance And Life Insurance Needs,BURLEIGH HEADS QLD 4220,0755229855,info@bizins.com.au,http://www.businessinsurances.com.au
4227,managed IT,McDonald Balanda & Assoc.,Professional and reliable lawyers,"Level 1 47 Watts Dr, Varsity Lakes QLD 4227",0755399688,,http://www.mba-lawyers.com.au
4227,managed IT,Austbrokers Coast To Coast Pty Ltd,Your Broker Working For You,"Level 2 85 West Burleigh Rd, Burleigh Heads QLD 4220",0755869955,admin@abc2c.com.au,http://www.abc2c.com.au
4227,managed IT,Robbins Watson,"Creative, Intelligent, Tenacious","Suite 12 Executive Place 2 Executive Dr, Burleigh Heads QLD 4220",0755769999,mail@robbinswatson.com.au,
4227,managed IT,AW Retail Systems,Free Consultation! Call The Experts In Hospitality & Salon POS Systems,"PO Box 1054, Burleigh Heads QLD 4220",0755195988,info@awretail.com.au,http://www.awretail.com.au
4227,managed IT,Parts Overnight,,"8 Ern Harley Dr, Burleigh Heads QLD 4220",0755989555,sales@partsovernight.com.au,http://partsovernight.com.au
4227,managed IT,"Crowley, Calvert & Associates Pty Ltd",Our Genuine Concern For Your Business Ensures Its Growth,"7 Sixth Ave, Palm Beach QLD 4221",0755345155,info@crowleycalvert.com.au,http://www.crowleycalvert.com.au
4227,managed IT,Ramsden Lawyers,"For Taxation regarding Wills, Disputes, Insolvency And Estate Planning","Level 3 Oracle East, 6 Charles Avenue, Broadbeach QLD 4218",0755316074,info@ramsdenlaw.com.au,http://www.ramsdenlaw.com.au
4227,managed IT,Harper Financial Services Pty Ltd,Over 30 Years Of Experience,"Suite 10 11 58 Railway St, Mudgeeraba QLD 4213",0755305052,mervyn_head@netspace.net.au,
4227,managed IT,Connect Hearing,National Network Of Hearing Healthcare Centres.,"Elanora Medical Centre 45 Guineas Creek Rd, Elanora QLD 4221",0755975877,,http://www.connecthearing.com.au
4227,managed IT,Burleigh-Miami Realty,Burleigh's Most Loved Agents.,"47 James St, Burleigh Heads QLD 4220",0755283319,info@burleighmiamirealty.com.au,http://www.burleighmiamirealty.com.au
4227,managed IT,Dirkwood's,New & Used Computers & Repairs,"2482 Gold Coast Hwy, Mermaid Beach QLD 4218",0755754575,info@dirkwoods.com.au,http://www.dirkwoods.com.au
4227,managed IT,McGrath Real Estate,For The Best Results In Real Estate.,"17 Sixth Ave, Palm Beach QLD 4221",0755340300,fompalmbeach@mcgrath.com.au,http://www.mcgrath.com.au
4227,managed IT,Crystal Integrated I.T Solutions,,,0755277885,markc@crystalitsolutions.com,http://www.crystalit.com.au
4227,managed IT,Capitol Body Corporate Administration,"Est 1996 with offices in Brisbane, Redcliffe and on the Gold Coast","Suite 1B Level 1 33 Elkhorn Ave, Surfers Paradise QLD 4217",0755388688,team@capitolbca.com.au,http://capitolbca.com.au
4227,managed IT,Morgans Gold Coast,"Stockbroking, Wealth Management & Corporate Finance",Chevron Island QLD 4217,0755815777,goldcoast@rbsmorgans.com,http://www.rbsmorgans.com/goldcoast
4227,managed IT,CLM Chartered Accountants,Accounting & Taxation Specialists For Business & Individuals,"Level 15 Corperate Centre One 2 Corperate Ct, Bundall QLD 4217",0755625500,eclm@clmaccountants.com.au,
4227,managed IT,Accounting Edge,Whatever Your Business We Provide The Edge,"44 Ashmore Rd, Bundall QLD 4217",0755701349,enquiries@accountingedge.com.au,http://www.accountingedge.com.au
4227,managed IT,Computer Doctor,"Computer Repairs, Service & Upgrades Servicing Gold Coast  for 37Yrs!","Ground Floor, Surfers Plaza Resort, 70 Remembrance Drive, Surfers Paradise QLD 4217",0755610872,support@computerdoctor.com.au,http://www.computerdoctor.com.au
4227,managed IT,ACE - IRM Insurance Broking Group Pty Ltd,"Protection Against Accidents, Financial Losses And More",GOLD COAST - SURFERS PARADISE QLD 4217,1300738223,enquiries@aceirm.com.au,http://www.aceirm.com.au
4227,managed IT,NTS Accounting And Taxation,,"45 Station St, Nerang QLD 4211",0755967269,info@ntsaccounting.com,http://www.ntsaccounting.com
4227,managed IT,McLauchlan & Partners,Your Financial Planners,"80-82 Upton St, Bundall QLD 4217",0755399095,service@mclauchlanpartners.com.au,http://www.mclauchlanpartners.com.au
4227,managed IT,Buchanan Legal,Dedicated To Quality Client Service & Expert Legal Solutions!,"1/ 65 Thomas Dr, Chevron Island QLD 4217",0755047333,,http://www.buchananlegal.com.au
4227,managed IT,Document Services Australia,"Photocopier & Printer - Sales, Service & Repairs","Level 9/ 1 Corporate Ct, Bundall QLD 4217",0731706250,info@documentservices.com.au,http://www.documentservices.com.au
4227,managed IT,Electrical Maintenance and Installations,"Dependable & Skilled Electricians, Serving Brisbane & Gold Coast Area",Gold Coast QLD 4217,0431711822,,https://emielectrician.com.au
4227,managed IT,Robbie & Associates Property Services,A Wide Range Of Services,"Lvl 3 RSL Building 9 Beach Rd, Surfers Paradise QLD 4217",0755923144,rra@robbiepropertyservices.com,http://www.robbiepropertyservices.com
4227,managed IT,Coast Commercial Real Estate Agents and Valuers,,,0400996871,admin@coastcommercial.com.au,http://www.coastvaluations.com.au
4227,managed IT,Loans for Homes,Mortgage Introducers,"8a 1st Floor 39 Lawrence Dr, Nerang QLD 4211",1300131217,info@loansforhomes.com.au,http://www.loansforhomes.com.au
4227,managed IT,Ownit Conveyancing,Professional Conveyancing At Affordable Prices,"46/ 40 Cotlew St East, Southport QLD 4215",1300553750,info@eownit.com,http://www.ownitconveyancing.com
4227,managed IT,Logical Choice IT,,,0755021328,info@lcit.net.au,http://www.logicalchoiceit.com.au
